{"type":"FeatureCollection","features":[{"type":"Feature","id":3,"geometry":{"type":"LineString","coordinates":[[151.24256904344296,-33.903318357987615],[151.24266831402406,-33.903379155638973]]},"properties":{"OBJECTID":3,"gisReference":1,"parkingAreaName":"Clovelly Road in Randwick","parkingAreaCode":"RA01C","streetName":"Clovelly Road","side":"Northern","parkingStyle":"Parallel","fromHouseNo":"7","toHouseNo":"9","suburb":"Randwick","parkingSpaces":"2","restrictionZone":"1/2P","restrictionTime":"8:30AM-6PM, MON-SUN","ParkingRestriction":"1/2P 8:30AM-6PM, MON-SUN","parkingLabel":"1/2P-1","inspector":"Lisa Qin","inspectionDate":1604188800000,"comment":"Inspection date is estimated","X1":337511.24357499997,"Y1":6247172.1109999996,"X2":337520.53840000002,"Y2":6247165.5258750003,"Shape.STLength()":11.3911212374485}},{"type":"Feature","id":4,"geometry":{"type":"LineString","coordinates":[[151.24266728432784,-33.90337950592631],[151.24269391207039,-33.903397257338376]]},"properties":{"OBJECTID":4,"gisReference":2,"parkingAreaName":"Clovelly Road in Randwick","parkingAreaCode":"RA01C","streetName":"Clovelly Road","side":"Northern","parkingStyle":" ","fromHouseNo":"9","toHouseNo":"11","suburb":"Randwick","parkingSpaces":"0","restrictionZone":"NO STOPPING","restrictionTime":" ","ParkingRestriction":"NO STOPPING","parkingLabel":"NS","inspector":"Lisa Qin","inspectionDate":1604188800000,"comment":"Inspection date is estimated","X1":337520.44384999998,"Y1":6247165.4853999997,"X2":337522.93977499998,"Y2":6247163.5589749999,"Shape.STLength()":3.1528962695036475}},{"type":"Feature","id":5,"geometry":{"type":"LineString","coordinates":[[151.24269324507424,-33.90339752149994],[151.24292888260462,-33.903538296385001]]},"properties":{"OBJECTID":5,"gisReference":3,"parkingAreaName":"Clovelly Road in Randwick","parkingAreaCode":"RA01C","streetName":"Clovelly Road","side":"Northern","parkingStyle":" ","fromHouseNo":"11","toHouseNo":"17","suburb":"Randwick","parkingSpaces":"0","restrictionZone":"BUS ZONE","restrictionTime":" ","ParkingRestriction":"BUS ZONE","parkingLabel":"BZ","inspector":"Lisa Qin","inspectionDate":1604188800000,"comment":"Inspection date is estimated","X1":337522.8786,"Y1":6247163.5286250003,"X2":337544.93485000002,"Y2":6247148.2900999999,"Shape.STLength()":26.808409282128739}},{"type":"Feature","id":7,"geometry":{"type":"LineString","coordinates":[[151.24309316448651,-33.90355147380631],[151.24323094273396,-33.903456051827433]]},"properties":{"OBJECTID":7,"gisReference":6,"parkingAreaName":"Clovelly Road in Randwick","parkingAreaCode":"RA01C","streetName":"Earl Street","side":"Western","parkingStyle":"Parallel","fromHouseNo":"19","toHouseNo":"19","suburb":"Randwick","parkingSpaces":"3","restrictionZone":"P30","restrictionTime":"8AM-6PM, MON-SUN","ParkingRestriction":"P30 8AM-6PM, MON-SUN","parkingLabel":"P30-1","inspector":"Lisa Qin","inspectionDate":1604188800000,"comment":"Inspection date is estimated","X1":337560.15077499999,"Y1":6247147.0887000002,"X2":337572.70990000002,"Y2":6247157.8886000002,"Shape.STLength()":16.564101568621993}},{"type":"Feature","id":8,"geometry":{"type":"LineString","coordinates":[[151.24314666783064,-33.903670847878068],[151.2432378630688,-33.903728372416666]]},"properties":{"OBJECTID":8,"gisReference":7,"parkingAreaName":"Clovelly Road in Randwick","parkingAreaCode":"RA01C","streetName":"Clovelly Road","side":"Northern","parkingStyle":" ","fromHouseNo":"21","toHouseNo":"21","suburb":"Randwick","parkingSpaces":"0","restrictionZone":"NO STOPPING","restrictionTime":" ","ParkingRestriction":"NO STOPPING","parkingLabel":"NS","inspector":"Lisa Qin","inspectionDate":1604188800000,"comment":"Inspection date is estimated","X1":337565.32465000002,"Y1":6247133.9352249997,"X2":337573.86647499999,"Y2":6247127.7002499998,"Shape.STLength()":10.575333922919418}},{"type":"Feature","id":9,"geometry":{"type":"LineString","coordinates":[[151.24323789161735,-33.903729168388232],[151.24339813804372,-33.903833612719531],[151.24339615983192,-33.903835231989568]]},"properties":{"OBJECTID":9,"gisReference":8,"parkingAreaName":"Clovelly Road in Randwick","parkingAreaCode":"RA01C","streetName":"Clovelly Road","side":"Northern","parkingStyle":"Parallel","fromHouseNo":"21","toHouseNo":"23","suburb":"Randwick","parkingSpaces":"3","restrictionZone":"UNRESTRICTED","restrictionTime":" ","ParkingRestriction":"UNRESTRICTED","parkingLabel":"U","inspector":"Lisa Qin","inspectionDate":1604188800000,"comment":"Inspection date is estimated","X1":337573.87062499998,"Y1":6247127.6120250002,"X2":337588.70665000001,"Y2":6247116.10035,"Shape.STLength()":19.066531008532053}},{"type":"Feature","id":803,"geometry":{"type":"LineString","coordinates":[[151.24292888260462,-33.903538296385001],[151.24301988391272,-33.903595639543404],[151.24302033106812,-33.903595825144841]]},"properties":{"OBJECTID":803,"gisReference":4,"parkingAreaName":"Clovelly Road in Randwick","parkingAreaCode":"RA01C","streetName":"Clovelly Road","side":"Northern","parkingStyle":" ","fromHouseNo":"19","toHouseNo":"19","suburb":"Randwick","parkingSpaces":"0","restrictionZone":"NO STOPPING","restrictionTime":" ","ParkingRestriction":"NO STOPPING","parkingLabel":"NS","inspector":"Lisa Qin","inspectionDate":1604188800000,"comment":"Inspection date is estimated","X1":337544.93485000002,"Y1":6247148.2900999999,"X2":337553.50012500002,"Y2":6247142.055075,"Shape.STLength()":10.595100335152557}},{"type":"Feature","id":804,"geometry":{"type":"LineString","coordinates":[[151.24301988391272,-33.903595639543404],[151.24309316448651,-33.90355147380631],[151.24309163313134,-33.903551672661038],[151.24309185667602,-33.903552043762105]]},"properties":{"OBJECTID":804,"gisReference":5,"parkingAreaName":"Clovelly Road in Randwick","parkingAreaCode":"RA01C","streetName":"Earl Street","side":"Western","parkingStyle":" ","fromHouseNo":"19","toHouseNo":"19","suburb":"Randwick","parkingSpaces":"0","restrictionZone":"NO STOPPING","restrictionTime":" ","ParkingRestriction":"NO STOPPING","parkingLabel":"NS","inspector":"Lisa Qin","inspectionDate":1604188800000,"comment":"Inspection date is estimated","X1":337553.45842500002,"Y1":6247142.0749500003,"X2":337560.03092500003,"Y2":6247147.0234249998,"Shape.STLength()":8.5515213694203531}},{"type":"Feature","id":805,"geometry":{"type":"LineString","coordinates":[[151.2434603400649,-33.903872507382282],[151.24357945975112,-33.903946817610567],[151.24357990690962,-33.903947003210078]]},"properties":{"OBJECTID":805,"gisReference":10,"parkingAreaName":"Clovelly Road in Randwick","parkingAreaCode":"RA01C","streetName":"Clovelly Road","side":"Northern","parkingStyle":"Parallel","fromHouseNo":"23","toHouseNo":"29","suburb":"Randwick","parkingSpaces":"2","restrictionZone":"LOADING ZONE","restrictionTime":"8:30AM-4PM, MON-FRI, 7AM-12PM, SAT","ParkingRestriction":"LOADING ZONE 8:30AM-4PM, MON-FRI, 7AM-12PM, SAT","parkingLabel":"LZ-1","inspector":"Lisa Qin","inspectionDate":1604188800000,"comment":"Inspection date is estimated","X1":337594.712,"Y1":6247112.0681750001,"X2":337605.90944999998,"Y2":6247103.9960000003,"Shape.STLength()":13.804475117419777}},{"type":"Feature","id":806,"geometry":{"type":"LineString","coordinates":[[151.24275602175297,-33.903569482099627],[151.24283984071366,-33.90362179712114],[151.24284006425742,-33.903622168222661]]},"properties":{"OBJECTID":806,"gisReference":11,"parkingAreaName":"Clovelly Road in Randwick","parkingAreaCode":"RA01C","streetName":"Clovelly Road","side":"Southern","parkingStyle":"Parallel","fromHouseNo":"24","toHouseNo":"26","suburb":"Randwick","parkingSpaces":"2","restrictionZone":"UNRESTRICTED","restrictionTime":" ","ParkingRestriction":"UNRESTRICTED","parkingLabel":"U","inspector":"Lisa Qin","inspectionDate":1604188800000,"comment":"Inspection date is estimated","X1":337529.00982500002,"Y1":6247144.5581999999,"X2":337536.8811,"Y2":6247138.8485000003,"Shape.STLength()":9.7288983595312839}},{"type":"Feature","id":807,"geometry":{"type":"LineString","coordinates":[[151.24283984071366,-33.90362179712114],[151.24285593411659,-33.903632371341949],[151.24285615741266,-33.90363255690594]]},"properties":{"OBJECTID":807,"gisReference":12,"parkingAreaName":"Clovelly Road in Randwick","parkingAreaCode":"RA01C","streetName":"Clovelly Road","side":"Southern","parkingStyle":"Parallel","fromHouseNo":"28","toHouseNo":"28","suburb":"Randwick","parkingSpaces":"1","restrictionZone":"NO PARKING","restrictionTime":"8AM-6PM, BICYCLE EXCEPTED","ParkingRestriction":"NO PARKING 8AM-6PM, BICYCLE EXCEPTED","parkingLabel":"NP-1","inspector":"Lisa Qin","inspectionDate":1604188800000,"comment":"Inspection date is estimated","X1":337536.85972499999,"Y1":6247138.8892999999,"X2":337538.38892499998,"Y2":6247137.7219000002,"Shape.STLength()":1.924063995015489}},{"type":"Feature","id":808,"geometry":{"type":"LineString","coordinates":[[151.24285615741266,-33.90363255690594],[151.24291896593743,-33.903670216308399],[151.24291918950399,-33.903670401876141]]},"properties":{"OBJECTID":808,"gisReference":13,"parkingAreaName":"Clovelly Road in Randwick","parkingAreaCode":"RA01C","streetName":"Clovelly Road","side":"Southern","parkingStyle":" ","fromHouseNo":"28","toHouseNo":"28","suburb":"Randwick","parkingSpaces":"0","restrictionZone":"NO STOPPING","restrictionTime":" ","ParkingRestriction":"NO STOPPING","parkingLabel":"NS","inspector":"Lisa Qin","inspectionDate":1604188800000,"comment":"Inspection date is estimated","X1":337538.38892499998,"Y1":6247137.7219000002,"X2":337544.28922500001,"Y2":6247133.6247749999,"Shape.STLength()":7.1836818782028171}},{"type":"Feature","id":809,"geometry":{"type":"LineString","coordinates":[[151.2429190296815,-33.903670271998884],[151.24285235762397,-33.903742381405564],[151.24285264501853,-33.903742381448424]]},"properties":{"OBJECTID":809,"gisReference":14,"parkingAreaName":"Clovelly Road in Randwick","parkingAreaCode":"RA01C","streetName":"Earl Street","side":"Western","parkingStyle":" ","fromHouseNo":"28","toHouseNo":"28","suburb":"Randwick","parkingSpaces":"0","restrictionZone":"NO STOPPING","restrictionTime":" ","ParkingRestriction":"NO STOPPING","parkingLabel":"NS","inspector":"Lisa Qin","inspectionDate":1604188800000,"comment":"Inspection date is estimated","X1":337544.27419999999,"Y1":6247133.6389250001,"X2":337538.27254999999,"Y2":6247125.5372249996,"Shape.STLength()":10.125308000697204}},{"type":"Feature","id":810,"geometry":{"type":"LineString","coordinates":[[151.24285235762397,-33.903742381405564],[151.24278329089611,-33.903806940110712],[151.24278373802937,-33.903807311246666]]},"properties":{"OBJECTID":810,"gisReference":15,"parkingAreaName":"Clovelly Road in Randwick","parkingAreaCode":"RA01C","streetName":"Earl Street","side":"Western","parkingStyle":"Parallel","fromHouseNo":"28","toHouseNo":"28","suburb":"Randwick","parkingSpaces":"2","restrictionZone":"1P","restrictionTime":"8AM-6PM, MON-SUN","ParkingRestriction":"1P 8AM-6PM, MON-SUN","parkingLabel":"1P-1","inspector":"Lisa Qin","inspectionDate":1604188800000,"comment":"Inspection date is estimated","X1":337538.24597500003,"Y1":6247125.5367750004,"X2":337532.02405000001,"Y2":6247118.2277250001,"Shape.STLength()":9.6536549221191503}},{"type":"Feature","id":811,"geometry":{"type":"LineString","coordinates":[[151.24278373802937,-33.903807311246666],[151.2426270521,-33.903966110946037],[151.24262727564368,-33.90396648204792]]},"properties":{"OBJECTID":811,"gisReference":16,"parkingAreaName":"Clovelly Road in Randwick","parkingAreaCode":"RA01C","streetName":"Earl Street","side":"Western","parkingStyle":"Parallel","fromHouseNo":"28","toHouseNo":"28","suburb":"Randwick","parkingSpaces":"4","restrictionZone":"UNRESTRICTED","restrictionTime":" ","ParkingRestriction":"UNRESTRICTED","parkingLabel":"U","inspector":"Lisa Qin","inspectionDate":1604188800000,"comment":"Inspection date is estimated","X1":337532.02405000001,"Y1":6247118.2277250001,"X2":337517.85832499998,"Y2":6247100.3287000004,"Shape.STLength()":22.85373436717769}},{"type":"Feature","id":812,"geometry":{"type":"LineString","coordinates":[[151.24280586603169,-33.903959432324385],[151.24283738194521,-33.90393049236112],[151.24283738217034,-33.903930863432251]]},"properties":{"OBJECTID":812,"gisReference":17,"parkingAreaName":"Clovelly Road in Randwick","parkingAreaCode":"RA01C","streetName":"Earl Street","side":"Eastern","parkingStyle":"Parallel","fromHouseNo":"30","toHouseNo":"30","suburb":"Randwick","parkingSpaces":"1","restrictionZone":"MOBILITY PARKING (MIPPS)","restrictionTime":" ","ParkingRestriction":"MOBILITY PARKING (MIPPS)","parkingLabel":"M","inspector":"Lisa Qin","inspectionDate":1604188800000,"comment":"Inspection date is estimated","X1":337534.35887499998,"Y1":6247101.3931,"X2":337537.21889999998,"Y2":6247104.6111500002,"Shape.STLength()":4.3768202488622618}},{"type":"Feature","id":813,"geometry":{"type":"LineString","coordinates":[[151.24283738194521,-33.90393049236112],[151.24296121077373,-33.903806198211136],[151.24296121073377,-33.903806569053074]]},"properties":{"OBJECTID":813,"gisReference":18,"parkingAreaName":"Clovelly Road in Randwick","parkingAreaCode":"RA01C","streetName":"Earl Street","side":"Eastern","parkingStyle":"Parallel","fromHouseNo":"30","toHouseNo":"30","suburb":"Randwick","parkingSpaces":"3","restrictionZone":"1/2P","restrictionTime":"8AM-6PM, MON-SUN","ParkingRestriction":"1/2P 8AM-6PM, MON-SUN","parkingLabel":"1/2P-2","inspector":"Lisa Qin","inspectionDate":1604188800000,"comment":"Inspection date is estimated","X1":337537.21817499999,"Y1":6247104.6523000002,"X2":337548.43325,"Y2":6247118.5908500003,"Shape.STLength()":17.963003619944612}},{"type":"Feature","id":814,"geometry":{"type":"LineString","coordinates":[[151.24296121073377,-33.903806569053074],[151.24303228926124,-33.90373830008938],[151.24303251281074,-33.903738670965183]]},"properties":{"OBJECTID":814,"gisReference":19,"parkingAreaName":"Clovelly Road in Randwick","parkingAreaCode":"RA01C","streetName":"Earl Street","side":"Eastern","parkingStyle":" ","fromHouseNo":"30","toHouseNo":"30","suburb":"Randwick","parkingSpaces":"0","restrictionZone":"NO STOPPING","restrictionTime":" ","ParkingRestriction":"NO STOPPING","parkingLabel":"NS","inspector":"Lisa Qin","inspectionDate":1604188800000,"comment":"Inspection date is estimated","X1":337548.43325,"Y1":6247118.5908500003,"X2":337554.89760000003,"Y2":6247126.2333000004,"Shape.STLength()":10.073194720735206}},{"type":"Feature","id":815,"geometry":{"type":"LineString","coordinates":[[151.24303228926124,-33.90373830008938],[151.24310269717108,-33.903786348162406],[151.24310314433228,-33.903786533538209]]},"properties":{"OBJECTID":815,"gisReference":20,"parkingAreaName":"Clovelly Road in Randwick","parkingAreaCode":"RA01C","streetName":"Clovelly Road","side":"Southern","parkingStyle":" ","fromHouseNo":"30","toHouseNo":"30","suburb":"Randwick","parkingSpaces":"0","restrictionZone":"NO STOPPING","restrictionTime":" ","ParkingRestriction":"NO STOPPING","parkingLabel":"NS","inspector":"Lisa Qin","inspectionDate":1604188800000,"comment":"Inspection date is estimated","X1":337554.87622500001,"Y1":6247126.2740749996,"X2":337561.5196,"Y2":6247121.0372749995,"Shape.STLength()":8.4603786207570106}},{"type":"Feature","id":816,"geometry":{"type":"LineString","coordinates":[[151.24310313871132,-33.903786557128818],[151.24326990370429,-33.903891480344406],[151.24326990367652,-33.903891890186976]]},"properties":{"OBJECTID":816,"gisReference":21,"parkingAreaName":"Clovelly Road in Randwick","parkingAreaCode":"RA01C","streetName":"Clovelly Road","side":"Southern","parkingStyle":" ","fromHouseNo":"32","toHouseNo":"36","suburb":"Randwick","parkingSpaces":"0","restrictionZone":"BUS ZONE","restrictionTime":" ","ParkingRestriction":"BUS ZONE","parkingLabel":"BZ","inspector":"Lisa Qin","inspectionDate":1604188800000,"comment":"Inspection date is estimated","X1":337561.51912499999,"Y1":6247121.0346499998,"X2":337577.13945000002,"Y2":6247109.6174499998,"Shape.STLength()":19.366094284549519}},{"type":"Feature","id":817,"geometry":{"type":"LineString","coordinates":[[151.24326990367652,-33.903891890186976],[151.24332113441378,-33.903923217421379],[151.24332135796035,-33.903923588522112]]},"properties":{"OBJECTID":817,"gisReference":22,"parkingAreaName":"Clovelly Road in Randwick","parkingAreaCode":"RA01C","streetName":"Clovelly Road","side":"Southern","parkingStyle":"Parallel","fromHouseNo":"38","toHouseNo":"40","suburb":"Randwick","parkingSpaces":"1","restrictionZone":"MAIL ZONE","restrictionTime":" ","ParkingRestriction":"MAIL ZONE","parkingLabel":"MZ","inspector":"Lisa Qin","inspectionDate":1604188800000,"comment":"Inspection date is estimated","X1":337577.13945000002,"Y1":6247109.6174499998,"X2":337581.957475,"Y2":6247106.1836249996,"Shape.STLength()":5.9214723914184209}},{"type":"Feature","id":818,"geometry":{"type":"LineString","coordinates":[[151.24332135796035,-33.903923588522112],[151.24341165878707,-33.903980541096054],[151.24341165876572,-33.903980726629726]]},"properties":{"OBJECTID":818,"gisReference":23,"parkingAreaName":"Clovelly Road in Randwick","parkingAreaCode":"RA01C","streetName":"Clovelly Road","side":"Southern","parkingStyle":"Parallel","fromHouseNo":"40","toHouseNo":"42","suburb":"Randwick","parkingSpaces":"2","restrictionZone":"P5","restrictionTime":"6AM-10AM, MON-FRI","ParkingRestriction":"P5 6AM-10AM, MON-FRI","parkingLabel":"P5-1","inspector":"Lisa Qin","inspectionDate":1604188800000,"comment":"Inspection date is estimated","X1":337581.957475,"Y1":6247106.1836249996,"X2":337590.41582499997,"Y2":6247099.9900749996,"Shape.STLength()":10.491651672868494}},{"type":"Feature","id":819,"geometry":{"type":"LineString","coordinates":[[151.24341165876572,-33.903980726629726],[151.24362225193045,-33.904105585406519],[151.24362269884509,-33.904105585242974]]},"properties":{"OBJECTID":819,"gisReference":24,"parkingAreaName":"Clovelly Road in Randwick","parkingAreaCode":"RA01C","streetName":"Clovelly Road","side":"Southern","parkingStyle":"Parallel","fromHouseNo":"44","toHouseNo":"46","suburb":"Randwick","parkingSpaces":"3","restrictionZone":"UNRESTRICTED","restrictionTime":" ","ParkingRestriction":"UNRESTRICTED","parkingLabel":"U","inspector":"Lisa Qin","inspectionDate":1604188800000,"comment":"Inspection date is estimated","X1":337590.41582499997,"Y1":6247099.9900749996,"X2":337610.16714999999,"Y2":6247086.47755,"Shape.STLength()":23.938863147244177}},{"type":"Feature","id":820,"geometry":{"type":"LineString","coordinates":[[151.24343333984464,-33.90439537451654],[151.24359695463099,-33.904208934041911],[151.24359695458909,-33.904209305109276]]},"properties":{"OBJECTID":820,"gisReference":25,"parkingAreaName":"Clovelly Road in Randwick","parkingAreaCode":"RA01C","streetName":"Castle Lane","side":"Western","parkingStyle":" ","fromHouseNo":"46","toHouseNo":"46","suburb":"Randwick","parkingSpaces":"0","restrictionZone":"NO PARKING","restrictionTime":" ","ParkingRestriction":"NO PARKING","parkingLabel":"NP","inspector":"Lisa Qin","inspectionDate":1604188800000,"comment":"Inspection date is estimated","X1":337593.20724999998,"Y1":6247054.0415249998,"X2":337607.98337500001,"Y2":6247074.9347000001,"Shape.STLength()":25.664566092101044}},{"type":"Feature","id":821,"geometry":{"type":"LineString","coordinates":[[151.2434655263589,-33.904432662454006],[151.24364121101146,-33.904233978409898],[151.24364165817155,-33.904234164009225]]},"properties":{"OBJECTID":821,"gisReference":26,"parkingAreaName":"Clovelly Road in Randwick","parkingAreaCode":"RA01C","streetName":"Castle Lane","side":"Eastern","parkingStyle":"Parallel","fromHouseNo":"48","toHouseNo":"48","suburb":"Randwick","parkingSpaces":"5","restrictionZone":"UNRESTRICTED","restrictionTime":" ","ParkingRestriction":"UNRESTRICTED","parkingLabel":"U","inspector":"Lisa Qin","inspectionDate":1604188800000,"comment":"Inspection date is estimated","X1":337596.25420000002,"Y1":6247049.9573499998,"X2":337612.16417499998,"Y2":6247072.2486500004,"Shape.STLength()":27.424847969899155}},{"type":"Feature","id":822,"geometry":{"type":"LineString","coordinates":[[151.24371318359525,-33.904159587686273],[151.24379230885481,-33.904211902314167],[151.24379275572437,-33.904212273442766]]},"properties":{"OBJECTID":822,"gisReference":27,"parkingAreaName":"Clovelly Road in Randwick","parkingAreaCode":"RA01C","streetName":"Clovelly Road","side":"Southern","parkingStyle":"Parallel","fromHouseNo":"48","toHouseNo":"48","suburb":"Randwick","parkingSpaces":"0","restrictionZone":"NO STOPPING","restrictionTime":" ","ParkingRestriction":"NO STOPPING","parkingLabel":"NS","inspector":"Lisa Qin","inspectionDate":1604188800000,"comment":"Inspection date is estimated","X1":337618.63652499998,"Y1":6247080.6320000002,"X2":337626.09432500001,"Y2":6247074.9151999997,"Shape.STLength()":9.3972086500360597}},{"type":"Feature","id":823,"geometry":{"type":"LineString","coordinates":[[151.24379275572437,-33.904212273442766],[151.24389557374997,-33.904273678223227],[151.24389557372965,-33.904273863756892]]},"properties":{"OBJECTID":823,"gisReference":28,"parkingAreaName":"Clovelly Road in Randwick","parkingAreaCode":"RA01C","streetName":"Clovelly Road","side":"Southern","parkingStyle":"Parallel","fromHouseNo":"50","toHouseNo":"52","suburb":"Randwick","parkingSpaces":"13","restrictionZone":"NO PARKING","restrictionTime":"8AM-6PM, BICYCLE EXCEPTED","ParkingRestriction":"NO PARKING 8AM-6PM, BICYCLE EXCEPTED","parkingLabel":"NP-1","inspector":"Lisa Qin","inspectionDate":1604188800000,"comment":"Inspection date is estimated","X1":337626.09432500001,"Y1":6247074.9151999997,"X2":337635.71850000002,"Y2":6247068.2476749998,"Shape.STLength()":11.71672913565344}},{"type":"Feature","id":824,"geometry":{"type":"LineString","coordinates":[[151.24389557372965,-33.904273863756892],[151.24401426144468,-33.904351036993518],[151.24401448499535,-33.904351408093113]]},"properties":{"OBJECTID":824,"gisReference":29,"parkingAreaName":"Clovelly Road in Randwick","parkingAreaCode":"RA01C","streetName":"Clovelly Road","side":"Southern","parkingStyle":"Parallel","fromHouseNo":"54","toHouseNo":"56","suburb":"Randwick","parkingSpaces":"2","restrictionZone":"UNRESTRICTED","restrictionTime":" ","ParkingRestriction":"UNRESTRICTED","parkingLabel":"U","inspector":"Lisa Qin","inspectionDate":1604188800000,"comment":"Inspection date is estimated","X1":337635.71850000002,"Y1":6247068.2476749998,"X2":337646.86102499999,"Y2":6247059.8363500005,"Shape.STLength()":13.965315304112604}},{"type":"Feature","id":825,"geometry":{"type":"LineString","coordinates":[[151.24932190956483,-33.919760378597346],[151.24938158884689,-33.919769838156022]]},"properties":{"OBJECTID":825,"gisReference":30,"parkingAreaName":"Coogee Bay Road in Coogee","parkingAreaCode":"CO01C","streetName":"Coogee Bay Road","side":"South","parkingStyle":"Parallel","fromHouseNo":"101-103","toHouseNo":"101-103","suburb":"Coogee","parkingSpaces":"1","restrictionZone":"1/4P","restrictionTime":"8:30AM-6PM","ParkingRestriction":"1/4P 8:30AM-6PM","parkingLabel":"1/4P-1","inspector":"Lisa Qin","inspectionDate":1604188800000,"comment":"Inspection date is estimated","X1":338166.76610000001,"Y1":6245359.4211750003,"X2":338172.3014,"Y2":6245358.4662499996,"Shape.STLength()":5.6170657683193506}},{"type":"Feature","id":826,"geometry":{"type":"LineString","coordinates":[[151.24938158884689,-33.919769838156022],[151.24954453309792,-33.919792652006919],[151.24954475644961,-33.919792837560095]]},"properties":{"OBJECTID":826,"gisReference":31,"parkingAreaName":"Coogee Bay Road in Coogee","parkingAreaCode":"CO01C","streetName":"Coogee Bay Road","side":"South","parkingStyle":"Parallel","fromHouseNo":"101-103","toHouseNo":"101-103","suburb":"Coogee","parkingSpaces":"2","restrictionZone":"UNRESTRICTED","restrictionTime":" ","ParkingRestriction":"UNRESTRICTED","parkingLabel":"U","inspector":"Lisa Qin","inspectionDate":1604188800000,"comment":"Inspection date is estimated","X1":338172.3014,"Y1":6245358.4662499996,"X2":338187.42989999999,"Y2":6245356.172975,"Shape.STLength()":15.306698380108582}},{"type":"Feature","id":827,"geometry":{"type":"LineString","coordinates":[[151.24974346350808,-33.91982288525702],[151.25019876837391,-33.9198952221467],[151.25019876835398,-33.919895778522402],[151.25019921561434,-33.919895963875099]]},"properties":{"OBJECTID":827,"gisReference":32,"parkingAreaName":"Coogee Bay Road in Coogee","parkingAreaCode":"CO01C","streetName":"Coogee Bay Road","side":"South","parkingStyle":" ","fromHouseNo":"117-121","toHouseNo":"117-121","suburb":"Coogee","parkingSpaces":"0","restrictionZone":"BUS ZONE","restrictionTime":" ","ParkingRestriction":"BUS ZONE","parkingLabel":"BZ","inspector":"Lisa Qin","inspectionDate":1604188800000,"comment":"Inspection date is estimated","X1":338205.85737500002,"Y1":6245353.1540750004,"X2":338248.13022499997,"Y2":6245345.7683250001,"Shape.STLength()":42.965011803850764}},{"type":"Feature","id":828,"geometry":{"type":"LineString","coordinates":[[151.25039792239042,-33.919917479570159],[151.25059506493378,-33.919946970737648],[151.25059506492647,-33.919947156271348]]},"properties":{"OBJECTID":828,"gisReference":33,"parkingAreaName":"Coogee Bay Road in Coogee","parkingAreaCode":"CO01C","streetName":"Coogee Bay Road","side":"South","parkingStyle":" ","fromHouseNo":"123-125","toHouseNo":"127-131","suburb":"Coogee","parkingSpaces":"0","restrictionZone":"NO STOPPING","restrictionTime":" ","ParkingRestriction":"NO STOPPING","parkingLabel":"NS","inspector":"Lisa Qin","inspectionDate":1604188800000,"comment":"Inspection date is estimated","X1":338266.54149999999,"Y1":6245343.695475,"X2":338284.82357499999,"Y2":6245340.7150999997,"Shape.STLength()":18.540348089084397}},{"type":"Feature","id":829,"geometry":{"type":"LineString","coordinates":[[151.25059506492647,-33.919947156271348],[151.25069453011579,-33.919961623625952],[151.25069475375255,-33.919961623421877]]},"properties":{"OBJECTID":829,"gisReference":34,"parkingAreaName":"Coogee Bay Road in Coogee","parkingAreaCode":"CO01C","streetName":"Coogee Bay Road","side":"South","parkingStyle":"Parallel","fromHouseNo":"127-131","toHouseNo":"127-131","suburb":"Coogee","parkingSpaces":"1","restrictionZone":"UNRESTRICTED","restrictionTime":" ","ParkingRestriction":"UNRESTRICTED","parkingLabel":"U","inspector":"Lisa Qin","inspectionDate":1604188800000,"comment":"Inspection date is estimated","X1":338284.82357499999,"Y1":6245340.7150999997,"X2":338294.06722500001,"Y2":6245339.267825,"Shape.STLength()":9.3565746281994038}},{"type":"Feature","id":830,"geometry":{"type":"LineString","coordinates":[[151.2507629262808,-33.919969970078853],[151.25091715353369,-33.919989445361736],[151.25091737688697,-33.919989816220877]]},"properties":{"OBJECTID":830,"gisReference":35,"parkingAreaName":"Coogee Bay Road in Coogee","parkingAreaCode":"CO01C","streetName":"Coogee Bay Road","side":"South","parkingStyle":"Parallel","fromHouseNo":"133","toHouseNo":"133","suburb":"Coogee","parkingSpaces":"3","restrictionZone":"UNRESTRICTED","restrictionTime":" ","ParkingRestriction":"UNRESTRICTED","parkingLabel":"U","inspector":"Lisa Qin","inspectionDate":1604188800000,"comment":"Inspection date is estimated","X1":338300.38559999998,"Y1":6245338.4496250004,"X2":338314.70217499998,"Y2":6245336.4921000004,"Shape.STLength()":14.46918092203026}},{"type":"Feature","id":831,"geometry":{"type":"LineString","coordinates":[[151.25098845546046,-33.920003170843906],[151.25111921315127,-33.920027653950001],[151.25111943677121,-33.92002802503805]]},"properties":{"OBJECTID":831,"gisReference":36,"parkingAreaName":"Coogee Bay Road in Coogee","parkingAreaCode":"CO01C","streetName":"Coogee Bay Road","side":"South","parkingStyle":"Parallel","fromHouseNo":"135-137","toHouseNo":"135-137","suburb":"Coogee","parkingSpaces":"3","restrictionZone":"UNRESTRICTED","restrictionTime":" ","ParkingRestriction":"UNRESTRICTED","parkingLabel":"U","inspector":"Lisa Qin","inspectionDate":1604188800000,"comment":"Inspection date is estimated","X1":338321.29867500003,"Y1":6245335.1231000004,"X2":338333.45494999998,"Y2":6245332.5732000005,"Shape.STLength()":12.437645157272822}},{"type":"Feature","id":832,"geometry":{"type":"LineString","coordinates":[[151.25119543258918,-33.920032847428679],[151.25156624780053,-33.920090716762559],[151.25156647143314,-33.920090716782283]]},"properties":{"OBJECTID":832,"gisReference":37,"parkingAreaName":"Coogee Bay Road in Coogee","parkingAreaCode":"CO01C","streetName":"Coogee Bay Road","side":"South","parkingStyle":"Parallel","fromHouseNo":"139","toHouseNo":"141","suburb":"Coogee","parkingSpaces":"6","restrictionZone":"UNRESTRICTED","restrictionTime":" ","ParkingRestriction":"UNRESTRICTED","parkingLabel":"U","inspector":"Lisa Qin","inspectionDate":1604188800000,"comment":"Inspection date is estimated","X1":338340.489925,"Y1":6245332.1581250001,"X2":338374.90202500002,"Y2":6245326.3250249997,"Shape.STLength()":34.90332769584704}},{"type":"Feature","id":833,"geometry":{"type":"LineString","coordinates":[[151.25164671407029,-33.920101845360961],[151.25187537237738,-33.92013690077556],[151.25187537237281,-33.920137086309353]]},"properties":{"OBJECTID":833,"gisReference":38,"parkingAreaName":"Coogee Bay Road in Coogee","parkingAreaCode":"CO01C","streetName":"Coogee Bay Road","side":"South","parkingStyle":"Parallel","fromHouseNo":"143-147","toHouseNo":"143-147","suburb":"Coogee","parkingSpaces":"4","restrictionZone":"UNRESTRICTED","restrictionTime":" ","ParkingRestriction":"UNRESTRICTED","parkingLabel":"U","inspector":"Lisa Qin","inspectionDate":1604188800000,"comment":"Inspection date is estimated","X1":338382.341525,"Y1":6245325.2172750002,"X2":338403.54767499998,"Y2":6245321.6692500003,"Shape.STLength()":21.517760516336029}},{"type":"Feature","id":834,"geometry":{"type":"LineString","coordinates":[[151.24978302619166,-33.919556722439374],[151.24976290951156,-33.91965354278318],[151.24976335649021,-33.919653913667219]]},"properties":{"OBJECTID":834,"gisReference":39,"parkingAreaName":"Coogee Bay Road in Coogee","parkingAreaCode":"CO01C","streetName":"Melody Street","side":"East","parkingStyle":"Parallel","fromHouseNo":"114-122","toHouseNo":"114-122","suburb":"Coogee","parkingSpaces":"2","restrictionZone":"UNRESTRICTED","restrictionTime":" ","ParkingRestriction":"UNRESTRICTED","parkingLabel":"U","inspector":"Lisa Qin","inspectionDate":1604188800000,"comment":"Inspection date is estimated","X1":338209.01167500002,"Y1":6245382.7329000002,"X2":338207.37697500002,"Y2":6245371.9237500001,"Shape.STLength()":10.956790946095433}},{"type":"Feature","id":835,"geometry":{"type":"LineString","coordinates":[[151.24976201525863,-33.91972235566827],[151.2498625981662,-33.919737379497398],[151.24986259815299,-33.919737750339351]]},"properties":{"OBJECTID":835,"gisReference":40,"parkingAreaName":"Coogee Bay Road in Coogee","parkingAreaCode":"CO01C","streetName":"Coogee Bay Road","side":"North","parkingStyle":" ","fromHouseNo":"114-122","toHouseNo":"114-122","suburb":"Coogee","parkingSpaces":"0","restrictionZone":"NO STOPPING","restrictionTime":" ","ParkingRestriction":"NO STOPPING","parkingLabel":"NS","inspector":"Lisa Qin","inspectionDate":1604188800000,"comment":"Inspection date is estimated","X1":338207.3824,"Y1":6245364.3316749996,"X2":338216.71049999999,"Y2":6245362.7830250002,"Shape.STLength()":9.4895711661517499}},{"type":"Feature","id":836,"geometry":{"type":"LineString","coordinates":[[151.2498625981662,-33.919737379497398],[151.25005571710068,-33.919767983660861],[151.25005616436002,-33.919768169014084]]},"properties":{"OBJECTID":836,"gisReference":41,"parkingAreaName":"Coogee Bay Road in Coogee","parkingAreaCode":"CO01C","streetName":"Coogee Bay Road","side":"North","parkingStyle":"Parallel","fromHouseNo":"114-122","toHouseNo":"114-122","suburb":"Coogee","parkingSpaces":"3","restrictionZone":"1P","restrictionTime":"8:30AM-6PM","ParkingRestriction":"1P 8:30AM-6PM","parkingLabel":"1P-2","inspector":"Lisa Qin","inspectionDate":1604188800000,"comment":"Inspection date is estimated","X1":338216.70980000001,"Y1":6245362.8241499998,"X2":338234.66340000002,"Y2":6245359.7148249997,"Shape.STLength()":18.222569723260289}},{"type":"Feature","id":837,"geometry":{"type":"LineString","coordinates":[[151.25005571710068,-33.919767983660861],[151.25055729030842,-33.919840876974256],[151.25055773729159,-33.919841247855544]]},"properties":{"OBJECTID":837,"gisReference":42,"parkingAreaName":"Coogee Bay Road in Coogee","parkingAreaCode":"CO01C","streetName":"Coogee Bay Road","side":"North","parkingStyle":" ","fromHouseNo":"114-122","toHouseNo":"134","suburb":"Coogee","parkingSpaces":"0","restrictionZone":"NO STOPPING","restrictionTime":" ","ParkingRestriction":"NO STOPPING","parkingLabel":"NS","inspector":"Lisa Qin","inspectionDate":1604188800000,"comment":"Inspection date is estimated","X1":338234.62170000002,"Y1":6245359.7346750004,"X2":338281.172425,"Y2":6245352.4011249999,"Shape.STLength()":47.135364174292867}},{"type":"Feature","id":838,"geometry":{"type":"LineString","coordinates":[[151.2510262526333,-33.919907478163509],[151.25135285141579,-33.91995607363399],[151.25135294335303,-33.919956073812571]]},"properties":{"OBJECTID":838,"gisReference":44,"parkingAreaName":"Coogee Bay Road in Coogee","parkingAreaCode":"CO01C","streetName":"Coogee Bay Road","side":"North","parkingStyle":"Parallel","fromHouseNo":"138","toHouseNo":"144A","suburb":"Coogee","parkingSpaces":"5","restrictionZone":"2P","restrictionTime":"8:30AM-8PM","ParkingRestriction":"2P 8:30AM-8PM","parkingLabel":"2P-1","inspector":"Lisa Qin","inspectionDate":1604188800000,"comment":"Inspection date is estimated","X1":338324.61222499999,"Y1":6245345.7945999997,"X2":338354.90685000003,"Y2":6245340.9201250002,"Shape.STLength()":30.684405024336424}},{"type":"Feature","id":839,"geometry":{"type":"LineString","coordinates":[[151.25135278870493,-33.919955873908755],[151.25144443071653,-33.919969228386478]]},"properties":{"OBJECTID":839,"gisReference":45,"parkingAreaName":"Coogee Bay Road in Coogee","parkingAreaCode":"CO01C","streetName":"Coogee Bay Road","side":"North","parkingStyle":" ","fromHouseNo":"144A","toHouseNo":"144A","suburb":"Coogee","parkingSpaces":"0","restrictionZone":"NO STOPPING","restrictionTime":" ","ParkingRestriction":"NO STOPPING","parkingLabel":"NS","inspector":"Lisa Qin","inspectionDate":1604188800000,"comment":"Inspection date is estimated","X1":338354.89217499999,"Y1":6245340.9420499997,"X2":338363.38977499999,"Y2":6245339.6054250002,"Shape.STLength()":8.6020795247791764}},{"type":"Feature","id":840,"geometry":{"type":"LineString","coordinates":[[151.25166973624357,-33.920004562089602],[151.25172606258838,-33.920013464997858],[151.25172606258351,-33.920013650531651]]},"properties":{"OBJECTID":840,"gisReference":46,"parkingAreaName":"Coogee Bay Road in Coogee","parkingAreaCode":"CO01C","streetName":"Coogee Bay Road","side":"North","parkingStyle":"Parallel","fromHouseNo":"146-148","toHouseNo":"146-148","suburb":"Coogee","parkingSpaces":"1","restrictionZone":"UNRESTRICTED","restrictionTime":" ","ParkingRestriction":"UNRESTRICTED","parkingLabel":"U","inspector":"Lisa Qin","inspectionDate":1604188800000,"comment":"Inspection date is estimated","X1":338384.28617500002,"Y1":6245336.0418750001,"X2":338389.51075000002,"Y2":6245335.1227000002,"Shape.STLength()":5.3215221200208971}},{"type":"Feature","id":841,"geometry":{"type":"LineString","coordinates":[[151.25172606258351,-33.920013650531651],[151.25178305959241,-33.920021255182839],[151.25178328322482,-33.920021255202158]]},"properties":{"OBJECTID":841,"gisReference":47,"parkingAreaName":"Coogee Bay Road in Coogee","parkingAreaCode":"CO01C","streetName":"Coogee Bay Road","side":"North","parkingStyle":"Parallel","fromHouseNo":"146-148","toHouseNo":"146-148","suburb":"Coogee","parkingSpaces":"1","restrictionZone":"NO PARKING","restrictionTime":"COUNCIL AUTHORISED CAR SHARE VEHICLES EXCEPTED","ParkingRestriction":"NO PARKING COUNCIL AUTHORISED CAR SHARE VEHICLES EXCEPTED","parkingLabel":"NP-2","inspector":"Lisa Qin","inspectionDate":1604188800000,"comment":"Inspection date is estimated","X1":338389.51075000002,"Y1":6245335.1227000002,"X2":338394.81520000001,"Y2":6245334.3694749996,"Shape.STLength()":5.3579200901485171}},{"type":"Feature","id":842,"geometry":{"type":"LineString","coordinates":[[151.23044151476341,-33.93362235937979],[151.23071375909021,-33.93366464170974],[151.23071420605348,-33.933665012661876]]},"properties":{"OBJECTID":842,"gisReference":75,"parkingAreaName":"Snape Street in Maroubra","parkingAreaCode":"MA01C","streetName":"Snape Street","side":"Northern","parkingStyle":" ","fromHouseNo":"161-165","toHouseNo":"161-165","suburb":"Maroubra","parkingSpaces":"0","restrictionZone":"NO STOPPING","restrictionTime":" ","ParkingRestriction":"NO STOPPING","parkingLabel":"NS","inspector":"Rasheeq Mahmood","inspectionDate":1572566400000,"comment":" ","X1":336447.75912499998,"Y1":6243792.2394500002,"X2":336473.04727500002,"Y2":6243787.9440249996,"Shape.STLength()":25.660496456837109}},{"type":"Feature","id":843,"geometry":{"type":"LineString","coordinates":[[151.23071420605348,-33.933665012661876],[151.2309323589167,-33.933694684412764],[151.23093235898631,-33.933695426319112]]},"properties":{"OBJECTID":843,"gisReference":76,"parkingAreaName":"Snape Street in Maroubra","parkingAreaCode":"MA01C","streetName":"Snape Street","side":"Northern","parkingStyle":"Parallel","fromHouseNo":"161-165","toHouseNo":"161-165","suburb":"Maroubra","parkingSpaces":"3","restrictionZone":"UNRESTRICTED","restrictionTime":" ","ParkingRestriction":"UNRESTRICTED","parkingLabel":"U","inspector":"Rasheeq Mahmood","inspectionDate":1572566400000,"comment":" ","X1":336473.04727500002,"Y1":6243787.9440249996,"X2":336493.27067499998,"Y2":6243784.9189499998,"Shape.STLength()":20.517265801505175}},{"type":"Feature","id":844,"geometry":{"type":"LineString","coordinates":[[151.23045224357799,-33.933700247972595],[151.23069766588023,-33.933732515996553],[151.23069811274476,-33.933733257787253]]},"properties":{"OBJECTID":844,"gisReference":77,"parkingAreaName":"Snape Street in Maroubra","parkingAreaCode":"MA01C","streetName":"Snape Street","side":"Southern","parkingStyle":" ","fromHouseNo":"167","toHouseNo":"167","suburb":"Maroubra","parkingSpaces":"0","restrictionZone":"NO STOPPING","restrictionTime":" ","ParkingRestriction":"NO STOPPING","parkingLabel":"NS","inspector":"Rasheeq Mahmood","inspectionDate":1572566400000,"comment":" ","X1":336448.89982499997,"Y1":6243783.61895,"X2":336471.690175,"Y2":6243780.3502000002,"Shape.STLength()":23.061885483062685}},{"type":"Feature","id":845,"geometry":{"type":"LineString","coordinates":[[151.23069811274476,-33.933733257787253],[151.2309028546986,-33.933763671482858],[151.23090285477255,-33.933764413163836]]},"properties":{"OBJECTID":845,"gisReference":78,"parkingAreaName":"Snape Street in Maroubra","parkingAreaCode":"MA01C","streetName":"Snape Street","side":"Southern","parkingStyle":"Parallel","fromHouseNo":"167","toHouseNo":"167","suburb":"Maroubra","parkingSpaces":"3","restrictionZone":"UNRESTRICTED","restrictionTime":" ","ParkingRestriction":"UNRESTRICTED","parkingLabel":"U","inspector":"Rasheeq Mahmood","inspectionDate":1572566400000,"comment":" ","X1":336471.690175,"Y1":6243780.3502000002,"X2":336490.67532500002,"Y2":6243777.2215,"Shape.STLength()":19.308875994124666}},{"type":"Feature","id":1203,"geometry":{"type":"LineString","coordinates":[[151.23068183905642,-33.98802808530899],[151.23104393726172,-33.987931342986123],[151.23114317895548,-33.987923559015925],[151.23118877658339,-33.987910215133255],[151.23118967079947,-33.987910956591399]]},"properties":{"OBJECTID":1203,"gisReference":48,"parkingAreaName":"Anzac Parade in La Perosue","parkingAreaCode":"LP01C","streetName":"Anzac Parade","side":"Northern","parkingStyle":" ","fromHouseNo":"1611R","toHouseNo":"1611R","suburb":"La Perouse","parkingSpaces":"0","restrictionZone":"NO STOPPING","restrictionTime":" ","ParkingRestriction":"NO STOPPING","parkingLabel":"NS","inspector":"Rasheeq Mahmood","inspectionDate":1604188800000,"comment":" ","X1":336574.08895,"Y1":6237759.1721000001,"X2":336620.7769,"Y2":6237772.9714000002,"Shape.STLength()":48.924792494226388}},{"type":"Feature","id":1204,"geometry":{"type":"LineString","coordinates":[[151.23117899604634,-33.987888617786929],[151.23125677999866,-33.987868602231202]]},"properties":{"OBJECTID":1204,"gisReference":49,"parkingAreaName":"Anzac Parade in La Perosue","parkingAreaCode":"LP01C","streetName":"Anzac Parade","side":"Northern","parkingStyle":"Parallel","fromHouseNo":"1609","toHouseNo":"1609","suburb":"La Perouse","parkingSpaces":"1","restrictionZone":"MOBILITY PARKING (MIPPS)","restrictionTime":" ","ParkingRestriction":"MOBILITY PARKING (MIPPS)","parkingLabel":"M","inspector":"Rasheeq Mahmood","inspectionDate":1604188800000,"comment":" ","X1":336619.74802499998,"Y1":6237775.4316999996,"X2":336626.89520000003,"Y2":6237777.7754250001,"Shape.STLength()":7.521645920691169}},{"type":"Feature","id":1205,"geometry":{"type":"LineString","coordinates":[[151.23125588613573,-33.987869358554441],[151.23151336758076,-33.987789666233901],[151.23151382165153,-33.987790347482949]]},"properties":{"OBJECTID":1205,"gisReference":50,"parkingAreaName":"Anzac Parade in La Perosue","parkingAreaCode":"LP01C","streetName":"Anzac Parade","side":"Northern","parkingStyle":"Parallel","fromHouseNo":"1609","toHouseNo":"1609","suburb":"La Perouse","parkingSpaces":"4","restrictionZone":"UNRESTRICTED","restrictionTime":" ","ParkingRestriction":"UNRESTRICTED","parkingLabel":"U","inspector":"Rasheeq Mahmood","inspectionDate":1604188800000,"comment":" ","X1":336626.814075,"Y1":6237777.6901249997,"X2":336650.4903,"Y2":6237786.8635750003,"Shape.STLength()":25.464528084724535}},{"type":"Feature","id":1206,"geometry":{"type":"LineString","coordinates":[[151.23152047637697,-33.987804206064247],[151.23157769685568,-33.987779000948564],[151.2316009427901,-33.987752313423194],[151.23161703582107,-33.987706721955696],[151.23164922256061,-33.987660018505451],[151.23170152550219,-33.987632218685093],[151.2317444408306,-33.987623322820617],[151.231795402785,-33.987629994911529],[151.23184368266965,-33.987651122633473],[151.23187989244929,-33.987676698206521],[151.23190671436851,-33.987732297684637],[151.23192549003463,-33.98775898537771],[151.23196974641905,-33.987776777196522],[151.23200327387704,-33.987781224932505],[151.23206496483141,-33.987764545242499],[151.23209178678235,-33.987744529533494],[151.23211592685701,-33.987712281832714],[151.23211592665422,-33.987713023278559]]},"properties":{"OBJECTID":1206,"gisReference":51,"parkingAreaName":"Anzac Parade in La Perosue","parkingAreaCode":"LP01C","streetName":"Anzac Parade","side":"Northern","parkingStyle":" ","fromHouseNo":"1609","toHouseNo":"52-54R","suburb":"La Perouse","parkingSpaces":"0","restrictionZone":"NO STOPPING","restrictionTime":" ","ParkingRestriction":"NO STOPPING","parkingLabel":"NS","inspector":"Rasheeq Mahmood","inspectionDate":1604188800000,"comment":" ","X1":336651.13157500001,"Y1":6237785.3372999998,"X2":336705.96340000001,"Y2":6237796.3985249996,"Shape.STLength()":76.261448629943544}},{"type":"Feature","id":1207,"geometry":{"type":"LineString","coordinates":[[151.23211592685701,-33.987712281832714],[151.23223237938495,-33.987189646618972],[151.23223260292579,-33.987189646450176]]},"properties":{"OBJECTID":1207,"gisReference":52,"parkingAreaName":"Anzac Parade in La Perosue","parkingAreaCode":"LP01C","streetName":"Endeavour Avenue","side":"Western","parkingStyle":"Parallel","fromHouseNo":"52-54R","toHouseNo":"52-54R","suburb":"La Perouse","parkingSpaces":"8","restrictionZone":"NO STOPPING","restrictionTime":"10PM-3AM, FRI-SAT-SUN & PUBLIC HOLIDAYS","ParkingRestriction":"NO STOPPING 10PM-3AM, FRI-SAT-SUN & PUBLIC HOLIDAYS","parkingLabel":"NS-1","inspector":"Rasheeq Mahmood","inspectionDate":1604188800000,"comment":" ","X1":336705.962,"Y1":6237796.4807500001,"X2":336715.7403,"Y2":6237854.6257999996,"Shape.STLength()":58.978392204420999}},{"type":"Feature","id":1208,"geometry":{"type":"LineString","coordinates":[[151.23223237938495,-33.987189646618972],[151.23223841428609,-33.98715461879371],[151.23223886158422,-33.98715480399045]]},"properties":{"OBJECTID":1208,"gisReference":53,"parkingAreaName":"Anzac Parade in La Perosue","parkingAreaCode":"LP01C","streetName":"Endeavour Avenue","side":"Western","parkingStyle":" ","fromHouseNo":"52-54R","toHouseNo":"52-54R","suburb":"La Perouse","parkingSpaces":"0","restrictionZone":"NO PARKING","restrictionTime":" ","ParkingRestriction":"NO PARKING","parkingLabel":"NP","inspector":"Rasheeq Mahmood","inspectionDate":1604188800000,"comment":" ","X1":336715.71964999998,"Y1":6237854.6254249997,"X2":336716.25180000003,"Y2":6237858.499725,"Shape.STLength()":3.9710418979554429}},{"type":"Feature","id":1209,"geometry":{"type":"LineString","coordinates":[[151.23223886157021,-33.987154804666545],[151.23224713168716,-33.987109749020696],[151.23224735515385,-33.987110039884683]]},"properties":{"OBJECTID":1209,"gisReference":54,"parkingAreaName":"Anzac Parade in La Perosue","parkingAreaCode":"LP01C","streetName":"Endeavour Avenue","side":"Western","parkingStyle":" ","fromHouseNo":"52-54R","toHouseNo":"52-54R","suburb":"La Perouse","parkingSpaces":"0","restrictionZone":"NO STOPPING","restrictionTime":" ","ParkingRestriction":"NO STOPPING","parkingLabel":"NS","inspector":"Rasheeq Mahmood","inspectionDate":1604188800000,"comment":" ","X1":336716.25180000003,"Y1":6237858.4996499997,"X2":336716.95077499998,"Y2":6237863.4775,"Shape.STLength()":5.0936926782870913}},{"type":"Feature","id":1210,"geometry":{"type":"LineString","coordinates":[[151.23233638542607,-33.987218209960261],[151.23235005932395,-33.987118352349547],[151.23235034415109,-33.987118463748807]]},"properties":{"OBJECTID":1210,"gisReference":55,"parkingAreaName":"Anzac Parade in La Perosue","parkingAreaCode":"LP01C","streetName":"Endeavour Avenue","side":"Eastern","parkingStyle":"Parallel","fromHouseNo":"43-45","toHouseNo":"43-45","suburb":"La Perouse","parkingSpaces":"1","restrictionZone":"UNRESTRICTED","restrictionTime":" ","ParkingRestriction":"UNRESTRICTED","parkingLabel":"U","inspector":"Rasheeq Mahmood","inspectionDate":1604188800000,"comment":" ","X1":336725.38219999999,"Y1":6237851.6235750001,"X2":336726.48084999999,"Y2":6237862.7074499996,"Shape.STLength()":11.176523572853675}},{"type":"Feature","id":1211,"geometry":{"type":"LineString","coordinates":[[151.23232783025293,-33.987268694223253],[151.23231508972674,-33.98733430169419],[151.2323150896286,-33.987334672304485]]},"properties":{"OBJECTID":1211,"gisReference":57,"parkingAreaName":"Anzac Parade in La Perosue","parkingAreaCode":"LP01C","streetName":"Endeavour Avenue","side":"Eastern","parkingStyle":"Parallel","fromHouseNo":"51-53","toHouseNo":"51-53","suburb":"La Perouse","parkingSpaces":"1","restrictionZone":"MOBILITY PARKING (MIPPS)","restrictionTime":" ","ParkingRestriction":"MOBILITY PARKING (MIPPS)","parkingLabel":"M","inspector":"Rasheeq Mahmood","inspectionDate":1604188800000,"comment":" ","X1":336724.68847499997,"Y1":6237846.0113500003,"X2":336723.63774999999,"Y2":6237838.6742249997,"Shape.STLength()":7.4125017125465202}},{"type":"Feature","id":1212,"geometry":{"type":"LineString","coordinates":[[151.2323150896286,-33.987334672304485],[151.2322757505803,-33.987491833788205],[151.23227619765885,-33.987491833675847]]},"properties":{"OBJECTID":1212,"gisReference":58,"parkingAreaName":"Anzac Parade in La Perosue","parkingAreaCode":"LP01C","streetName":"Endeavour Avenue","side":"Eastern","parkingStyle":"Parallel","fromHouseNo":"51-53","toHouseNo":"51A","suburb":"La Perouse","parkingSpaces":"3","restrictionZone":"NO STOPPING","restrictionTime":"10PM-3AM","ParkingRestriction":"NO STOPPING 10PM-3AM","parkingLabel":"NS-2","inspector":"Rasheeq Mahmood","inspectionDate":1604188800000,"comment":" ","X1":336723.63774999999,"Y1":6237838.6742249997,"X2":336720.34567499999,"Y2":6237821.1834000004,"Shape.STLength()":17.847645411030975}},{"type":"Feature","id":1213,"geometry":{"type":"LineString","coordinates":[[151.23227619765885,-33.987491833675847],[151.23226457466575,-33.987542614471167],[151.23226502173989,-33.987542614584221]]},"properties":{"OBJECTID":1213,"gisReference":59,"parkingAreaName":"Anzac Parade in La Perosue","parkingAreaCode":"LP01C","streetName":"Endeavour Avenue","side":"Eastern","parkingStyle":" ","fromHouseNo":"1605","toHouseNo":"1605","suburb":"La Perouse","parkingSpaces":"0","restrictionZone":"NO PARKING","restrictionTime":" ","ParkingRestriction":"NO PARKING","parkingLabel":"NP","inspector":"Rasheeq Mahmood","inspectionDate":1604188800000,"comment":" ","X1":336720.34567499999,"Y1":6237821.1834000004,"X2":336719.41042500001,"Y2":6237815.5340999998,"Shape.STLength()":5.7750786777536627}},{"type":"Feature","id":1214,"geometry":{"type":"LineString","coordinates":[[151.23226457466575,-33.987542614471167],[151.23225205774523,-33.987585426214217],[151.2322522812332,-33.987585611575923]]},"properties":{"OBJECTID":1214,"gisReference":60,"parkingAreaName":"Anzac Parade in La Perosue","parkingAreaCode":"LP01C","streetName":"Endeavour Avenue","side":"Eastern","parkingStyle":"Parallel","fromHouseNo":"1605","toHouseNo":"1605","suburb":"La Perouse","parkingSpaces":"1","restrictionZone":"NO STOPPING","restrictionTime":"10PM-3AM","ParkingRestriction":"NO STOPPING 10PM-3AM","parkingLabel":"NS-2","inspector":"Rasheeq Mahmood","inspectionDate":1604188800000,"comment":" ","X1":336719.36912500003,"Y1":6237815.5334000001,"X2":336718.31575000001,"Y2":6237810.7455249997,"Shape.STLength()":4.9163672140040564}},{"type":"Feature","id":1215,"geometry":{"type":"LineString","coordinates":[[151.2322522812332,-33.987585611575923],[151.23222892389697,-33.987619897873088],[151.23220042519023,-33.98765909527048],[151.23220064870296,-33.987659187979695]]},"properties":{"OBJECTID":1215,"gisReference":61,"parkingAreaName":"Anzac Parade in La Perosue","parkingAreaCode":"LP01C","streetName":"Endeavour Avenue","side":"Eastern","parkingStyle":" ","fromHouseNo":"1605","toHouseNo":"1605","suburb":"La Perouse","parkingSpaces":"0","restrictionZone":"NO PARKING","restrictionTime":" ","ParkingRestriction":"NO PARKING","parkingLabel":"NP","inspector":"Rasheeq Mahmood","inspectionDate":1604188800000,"comment":" ","X1":336718.31575000001,"Y1":6237810.7455249997,"X2":336713.68682499998,"Y2":6237802.5037749996,"Shape.STLength()":9.478281075034392}},{"type":"Feature","id":1218,"geometry":{"type":"LineString","coordinates":[[151.23220042519023,-33.98765909527048],[151.23216589168067,-33.98772053257391],[151.23214443416737,-33.987780579773172],[151.23214443410271,-33.987823947198329],[151.23216186859639,-33.987851747028003],[151.23220612498241,-33.987883994421608],[151.2322070190356,-33.987884365258473]]},"properties":{"OBJECTID":1218,"gisReference":62,"parkingAreaName":"Anzac Parade in La Perosue","parkingAreaCode":"LP01C","streetName":"Endeavour Avenue","side":"Eastern","parkingStyle":" ","fromHouseNo":"1605","toHouseNo":"1605","suburb":"La Perouse","parkingSpaces":"0","restrictionZone":"NO STOPPING","restrictionTime":" ","ParkingRestriction":"NO STOPPING","parkingLabel":"NS","inspector":"Rasheeq Mahmood","inspectionDate":1604188800000,"comment":" ","X1":336713.66600000003,"Y1":6237802.5137,"X2":336714.70614999998,"Y2":6237777.5422750004,"Shape.STLength()":28.286757387664569}},{"type":"Feature","id":1219,"geometry":{"type":"LineString","coordinates":[[151.23222125767583,-33.987875830089799],[151.23244030468754,-33.988006673379765],[151.23244119874772,-33.988007043989647]]},"properties":{"OBJECTID":1219,"gisReference":63,"parkingAreaName":"Anzac Parade in La Perosue","parkingAreaCode":"LP01C","streetName":"Anzac Parade","side":"Northern","parkingStyle":"Parallel","fromHouseNo":"1605","toHouseNo":"1603","suburb":"La Perouse","parkingSpaces":"4","restrictionZone":"NO STOPPING","restrictionTime":"10PM-3AM","ParkingRestriction":"NO STOPPING 10PM-3AM","parkingLabel":"NS-2","inspector":"Rasheeq Mahmood","inspectionDate":1604188800000,"comment":" ","X1":336716.00514999998,"Y1":6237778.5115,"X2":336736.57380000001,"Y2":6237764.3107000003,"Shape.STLength()":24.995820379334429}},{"type":"Feature","id":1220,"geometry":{"type":"LineString","coordinates":[[151.23244119872234,-33.988004078870432],[151.23248724323827,-33.988032619819599],[151.23248769048806,-33.988032990546067]]},"properties":{"OBJECTID":1220,"gisReference":64,"parkingAreaName":"Anzac Parade in La Perosue","parkingAreaCode":"LP01C","streetName":"Anzac Parade","side":"Northern","parkingStyle":" ","fromHouseNo":"36-38","toHouseNo":"36-38","suburb":"La Perouse","parkingSpaces":"0","restrictionZone":"NO PARKING","restrictionTime":" ","ParkingRestriction":"NO PARKING","parkingLabel":"NP","inspector":"Rasheeq Mahmood","inspectionDate":1604188800000,"comment":" ","X1":336736.56812499999,"Y1":6237764.639525,"X2":336740.91822499997,"Y2":6237761.507375,"Shape.STLength()":5.360975835901125}},{"type":"Feature","id":1221,"geometry":{"type":"LineString","coordinates":[[151.23248813749396,-33.98803224920858],[151.23254267563826,-33.988065238021427],[151.23254356969952,-33.988065608630578]]},"properties":{"OBJECTID":1221,"gisReference":65,"parkingAreaName":"Anzac Parade in La Perosue","parkingAreaCode":"LP01C","streetName":"Anzac Parade","side":"Northern","parkingStyle":"Parallel","fromHouseNo":"36-38","toHouseNo":"36-38","suburb":"La Perouse","parkingSpaces":"1","restrictionZone":"MOBILITY PARKING (MIPPS)","restrictionTime":" ","ParkingRestriction":"MOBILITY PARKING (MIPPS)","parkingLabel":"M","inspector":"Rasheeq Mahmood","inspectionDate":1604188800000,"comment":" ","X1":336740.95809999999,"Y1":6237761.5903000003,"X2":336746.14260000002,"Y2":6237757.97915,"Shape.STLength()":6.3194382173426469}},{"type":"Feature","id":1222,"geometry":{"type":"LineString","coordinates":[[151.23254222858262,-33.988064126074562],[151.2328483325162,-33.988252121306601],[151.23284855627773,-33.988252306671178]]},"properties":{"OBJECTID":1222,"gisReference":66,"parkingAreaName":"Anzac Parade in La Perosue","parkingAreaCode":"LP01C","streetName":"Anzac Parade","side":"Northern","parkingStyle":"Parallel","fromHouseNo":"36-38","toHouseNo":"36-38","suburb":"La Perouse","parkingSpaces":"6","restrictionZone":"NO STOPPING","restrictionTime":"10PM-3AM","ParkingRestriction":"NO STOPPING 10PM-3AM","parkingLabel":"NS-2","inspector":"Rasheeq Mahmood","inspectionDate":1604188800000,"comment":" ","X1":336746.01587499998,"Y1":6237758.1414249996,"X2":336774.67355000001,"Y2":6237737.7607249999,"Shape.STLength()":35.166140866563907}},{"type":"Feature","id":1223,"geometry":{"type":"LineString","coordinates":[[151.23283521179192,-33.988266030923384],[151.232906737261,-33.988303652814736],[151.23290718429141,-33.988303838230728]]},"properties":{"OBJECTID":1223,"gisReference":67,"parkingAreaName":"Anzac Parade in La Perosue","parkingAreaCode":"LP01C","streetName":"Anzac Parade","side":"Northern","parkingStyle":" ","fromHouseNo":"36-38","toHouseNo":"36-38","suburb":"La Perouse","parkingSpaces":"0","restrictionZone":"NO STOPPING","restrictionTime":" ","ParkingRestriction":"NO STOPPING","parkingLabel":"NS","inspector":"Rasheeq Mahmood","inspectionDate":1604188800000,"comment":" ","X1":336773.46707499999,"Y1":6237736.2174749998,"X2":336780.18800000002,"Y2":6237732.1393999998,"Shape.STLength()":7.8616296512394257}},{"type":"Feature","id":1224,"geometry":{"type":"LineString","coordinates":[[151.23271160653366,-33.988277335980541],[151.23252519293868,-33.988168361987341],[151.23252519301448,-33.98816910321181]]},"properties":{"OBJECTID":1224,"gisReference":69,"parkingAreaName":"Anzac Parade in La Perosue","parkingAreaCode":"LP01C","streetName":"Anzac Parade","side":"Southern","parkingStyle":" ","fromHouseNo":"1536","toHouseNo":"1536","suburb":"La Perouse","parkingSpaces":"0","restrictionZone":"NO PARKING","restrictionTime":" ","ParkingRestriction":"NO PARKING","parkingLabel":"NP","inspector":"Rasheeq Mahmood","inspectionDate":1604188800000,"comment":" ","X1":336762.07040000003,"Y1":6237734.7668249998,"X2":336744.64299999998,"Y2":6237746.4725500001,"Shape.STLength()":21.123103888149146}},{"type":"Feature","id":1225,"geometry":{"type":"LineString","coordinates":[[151.23250870096888,-33.988190150472803],[151.23211441629024,-33.987948850355352],[151.23211531034832,-33.987949220967536]]},"properties":{"OBJECTID":1225,"gisReference":70,"parkingAreaName":"Anzac Parade in La Perosue","parkingAreaCode":"LP01C","streetName":"Anzac Parade","side":"Southern","parkingStyle":"Angled","fromHouseNo":"1536","toHouseNo":"1536","suburb":"La Perouse","parkingSpaces":"18","restrictionZone":"NO STOPPING","restrictionTime":"10PM-3AM","ParkingRestriction":"NO STOPPING 10PM-3AM","parkingLabel":"NS-2","inspector":"Rasheeq Mahmood","inspectionDate":1604188800000,"comment":" ","X1":336743.15977500001,"Y1":6237744.1121749999,"X2":336706.35842499998,"Y2":6237770.2037500003,"Shape.STLength()":45.295359066872216}},{"type":"Feature","id":1226,"geometry":{"type":"LineString","coordinates":[[151.23213180237141,-33.987927432310386],[151.23209335735865,-33.987902598142412],[151.23209425168668,-33.987902968758632]]},"properties":{"OBJECTID":1226,"gisReference":71,"parkingAreaName":"Anzac Parade in La Perosue","parkingAreaCode":"LP01C","streetName":"Anzac Parade","side":"Southern","parkingStyle":" ","fromHouseNo":"1536","toHouseNo":"1536","suburb":"La Perouse","parkingSpaces":"0","restrictionZone":"NO PARKING","restrictionTime":" ","ParkingRestriction":"NO PARKING","parkingLabel":"NP","inspector":"Rasheeq Mahmood","inspectionDate":1604188800000,"comment":" ","X1":336707.84022499999,"Y1":6237772.6463500001,"X2":336704.32457499998,"Y2":6237775.2994499998,"Shape.STLength()":4.5871364351240134}},{"type":"Feature","id":1227,"geometry":{"type":"LineString","coordinates":[[151.23209425168668,-33.987902968758632],[151.23199679798569,-33.987861454711258],[151.23195388273822,-33.987854782719573],[151.23186402863607,-33.987857006732071],[151.2317714924732,-33.987854782655525],[151.23171650711487,-33.987851446828948],[151.23167359194366,-33.987834767099798],[151.23165615752669,-33.987818087131558],[151.23162262979264,-33.987789175548166],[151.23162307703726,-33.987789546277646]]},"properties":{"OBJECTID":1227,"gisReference":72,"parkingAreaName":"Anzac Parade in La Perosue","parkingAreaCode":"LP01C","streetName":"Anzac Parade","side":"Southern","parkingStyle":" ","fromHouseNo":"1536","toHouseNo":"1536","suburb":"La Perouse","parkingSpaces":"0","restrictionZone":"NO STOPPING","restrictionTime":" ","ParkingRestriction":"NO STOPPING","parkingLabel":"NS","inspector":"Rasheeq Mahmood","inspectionDate":1604188800000,"comment":" ","X1":336704.32457499998,"Y1":6237775.2994499998,"X2":336660.58152499999,"Y2":6237787.1266249996,"Shape.STLength()":47.443729128653153}},{"type":"Feature","id":1228,"geometry":{"type":"LineString","coordinates":[[151.23162262979264,-33.987789175548166],[151.23159446665539,-33.987809561868957],[151.23121761648667,-33.98792854433156],[151.23113446785473,-33.987954119885991],[151.23113491493083,-33.987954120003202]]},"properties":{"OBJECTID":1228,"gisReference":73,"parkingAreaName":"Anzac Parade in La Perosue","parkingAreaCode":"LP01C","streetName":"Anzac Parade","side":"Eastern","parkingStyle":" ","fromHouseNo":"1536","toHouseNo":"1536","suburb":"La Perouse","parkingSpaces":"0","restrictionZone":"NO STOPPING","restrictionTime":" ","ParkingRestriction":"NO STOPPING","parkingLabel":"NS","inspector":"Rasheeq Mahmood","inspectionDate":1604188800000,"comment":" ","X1":336660.53950000001,"Y1":6237787.1670249999,"X2":336615.80132500001,"Y2":6237768.0973500004,"Shape.STLength()":48.912515176472411}},{"type":"Feature","id":1229,"geometry":{"type":"LineString","coordinates":[[151.23114278623765,-33.987982765782313],[151.23070603349385,-33.988111755780245],[151.23070692738168,-33.988111755788587]]},"properties":{"OBJECTID":1229,"gisReference":74,"parkingAreaName":"Anzac Parade in La Perosue","parkingAreaCode":"LP01C","streetName":"Anzac Parade","side":"Eastern","parkingStyle":"Angled","fromHouseNo":"1536","toHouseNo":"1536","suburb":"La Perouse","parkingSpaces":"17","restrictionZone":"NO STOPPING","restrictionTime":"10PM-3AM","ParkingRestriction":"NO STOPPING 10PM-3AM","parkingLabel":"NS-2","inspector":"Rasheeq Mahmood","inspectionDate":1604188800000,"comment":"LA PEROUSE PARKING AREA, PARK IN MARKED BAYS ONLY","X1":336616.5833,"Y1":6237764.9331499999,"X2":336576.56677500001,"Y2":6237749.9332499998,"Shape.STLength()":42.895874631317497}},{"type":"Feature","id":2006,"geometry":{"type":"LineString","coordinates":[[151.24339813804372,-33.903833612719531],[151.2434603400649,-33.903872507382282],[151.24346067853375,-33.903872706310672]]},"properties":{"OBJECTID":2006,"gisReference":9,"parkingAreaName":"Clovelly Road in Randwick","parkingAreaCode":"RA01C","streetName":"Clovelly Road","side":"Northern","parkingStyle":null,"fromHouseNo":"23","toHouseNo":"23","suburb":"Randwick","parkingSpaces":"0","restrictionZone":"NO PARKING","restrictionTime":null,"ParkingRestriction":"NO PARKING","parkingLabel":"NP","inspector":"Lisa Qin","inspectionDate":1604188800000,"comment":"Inspection date is estimated","X1":337588.88650000002,"Y1":6247116.2830499997,"X2":337594.74367499998,"Y2":6247112.0466499999,"Shape.STLength()":7.2286805835408483}},{"type":"Feature","id":2007,"geometry":{"type":"LineString","coordinates":[[151.25055773729159,-33.919841247855544],[151.2510262526333,-33.919907478163509],[151.25102671557275,-33.919906883276518]]},"properties":{"OBJECTID":2007,"gisReference":43,"parkingAreaName":"Coogee Bay Road in Coogee","parkingAreaCode":"CO01C","streetName":"Coogee Bay Road","side":"Northern","parkingStyle":"PP","fromHouseNo":"136","toHouseNo":"138","suburb":"Coogee","parkingSpaces":"8","restrictionZone":"UNRESTRICTED","restrictionTime":null,"ParkingRestriction":"UNRESTRICTED","parkingLabel":"U","inspector":"Lisa Qin","inspectionDate":1604188800000,"comment":"Inspection date is estimated","X1":338281.172425,"Y1":6245352.4011249999,"X2":338324.65389999998,"Y2":6245345.8613,"Shape.STLength()":44.017952745197931}},{"type":"Feature","id":2008,"geometry":{"type":"LineString","coordinates":[[151.23233638542607,-33.987218209960261],[151.23232783025293,-33.987268694223253],[151.23232723053673,-33.987266839083723]]},"properties":{"OBJECTID":2008,"gisReference":56,"parkingAreaName":"Anzac Parade in La Perosue","parkingAreaCode":"LP01C","streetName":"Endeavour Avenue","side":"Eastern","parkingStyle":null,"fromHouseNo":"51-53","toHouseNo":"51-53","suburb":"La Perouse","parkingSpaces":"0","restrictionZone":"NO PARKING","restrictionTime":null,"ParkingRestriction":"NO PARKING","parkingLabel":"NP","inspector":"Rasheeq Mahmood","inspectionDate":1604188800000,"comment":null,"X1":336725.38219999999,"Y1":6237851.6235750001,"X2":336724.629525,"Y2":6237846.2161250003,"Shape.STLength()":5.8680293060708006}}]}